{"type": "FeatureCollection", "features": [ {"type": "Feature", "properties": {"norad_id": 65304, "name": "DRAGON CRS-33", "group": "stations", "lat": 30.168953534602938, "lon": 105.69582190142054, "alt_km": 413.78309420480036, "timestamp": "2025-12-25T16:53:13.407670+00:00", "meta": {"OBJECT_NAME": "DRAGON CRS-33", "OBJECT_ID": "2025-186A", "EPOCH": "2025-12-25T05:52:58.411200", "MEAN_MOTION": 15.49803499, "ECCENTRICITY": 0.00032029, "INCLINATION": 51.6316, "RA_OF_ASC_NODE": 80.5467, "ARG_OF_PERICENTER": 298.8467, "MEAN_ANOMALY": 61.22, "EPHEMERIS_TYPE": 0, "CLASSIFICATION_TYPE": "U", "NORAD_CAT_ID": 65304, "ELEMENT_SET_NO": 999, "REV_AT_EPOCH": 11, "BSTAR": 0.00025322562, "MEAN_MOTION_DOT": 0.00013923, "MEAN_MOTION_DDOT": 0}, "tle": {"line1": "1 65304U 25186A   25359.24512050  .00013923  00000+0  25323-3 0  9998", "line2": "2 65304  51.6316  80.5467 0003202 298.8467  61.2200 15.49803499   118"}}, "geometry": {"type": "Point", "coordinates": [105.69582190142054, 30.168953534602938]}}, {"type": "Feature", "properties": {"norad_id": 65586, "name": "PROGRESS-MS 32", "group": "stations", "lat": 30.168954029654802, "lon": 105.69582249194515, "alt_km": 413.78309415124386, "timestamp": "2025-12-25T16:53:13.407681+00:00", "meta": {"OBJECT_NAME": "PROGRESS-MS 32", "OBJECT_ID": "2025-204A", "EPOCH": "2025-12-25T05:52:58.411200", "MEAN_MOTION": 15.49803499, "ECCENTRICITY": 0.00032029, "INCLINATION": 51.6316, "RA_OF_ASC_NODE": 80.5467, "ARG_OF_PERICENTER": 298.8467, "MEAN_ANOMALY": 61.22, "EPHEMERIS_TYPE": 0, "CLASSIFICATION_TYPE": "U", "NORAD_CAT_ID": 65586, "ELEMENT_SET_NO": 999, "REV_AT_EPOCH": 27, "BSTAR": 0.00025322562, "MEAN_MOTION_DOT": 0.00013923, "MEAN_MOTION_DDOT": 0}, "tle": {"line1": "1 65586U 25204A   25359.24512050  .00013923  00000+0  25323-3 0  9991", "line2": "2 65586  51.6316  80.5467 0003202 298.8467  61.2200 15.49803499   277"}}, "geometry": {"type": "Point", "coordinates": [105.69582249194515, 30.168954029654802]}}, {"type": "Feature", "properties": {"norad_id": 65616, "name": "CYGNUS NG-23", "group": "stations", "lat": 30.16895447970177, "lon": 105.69582302878551, "alt_km": 413.78309410255497, "timestamp": "2025-12-25T16:53:13.407691+00:00", "meta": {"OBJECT_NAME": "CYGNUS NG-23", "OBJECT_ID": "2025-208A", "EPOCH": "2025-12-25T05:52:58.411200", "MEAN_MOTION": 15.49803499, "ECCENTRICITY": 0.00032029, "INCLINATION": 51.6316, "RA_OF_ASC_NODE": 80.5467, "ARG_OF_PERICENTER": 298.8467, "MEAN_ANOMALY": 61.22, "EPHEMERIS_TYPE": 0, "CLASSIFICATION_TYPE": "U", "NORAD_CAT_ID": 65616, "ELEMENT_SET_NO": 999, "REV_AT_EPOCH": 22, "BSTAR": 0.00025322562, "MEAN_MOTION_DOT": 0.00013923, "MEAN_MOTION_DDOT": 0}, "tle": {"line1": "1 65616U 25208A   25359.24512050  .00013923  00000+0  25323-3 0  9999", "line2": "2 65616  51.6316  80.5467 0003202 298.8467  61.2200 15.49803499   226"}}, "geometry": {"type": "Point", "coordinates": [105.69582302878551, 30.16895447970177]}}, {"type": "Feature", "properties": {"norad_id": 65729, "name": "DRAGONFLY", "group": "stations", "lat": 50.581295714658495, "lon": 143.76456709885377, "alt_km": 333.2983510163658, "timestamp": "2025-12-25T16:53:13.407702+00:00", "meta": {"OBJECT_NAME": "DRAGONFLY", "OBJECT_ID": "1998-067XH", "EPOCH": "2025-12-24T22:17:24.636768", "MEAN_MOTION": 15.7614965, "ECCENTRICITY": 0.0008056, "INCLINATION": 51.6251, "RA_OF_ASC_NODE": 73.1569, "ARG_OF_PERICENTER": 349.7528, "MEAN_ANOMALY": 10.3306, "EPHEMERIS_TYPE": 0, "CLASSIFICATION_TYPE": "U", "NORAD_CAT_ID": 65729, "ELEMENT_SET_NO": 999, "REV_AT_EPOCH": 1508, "BSTAR": 0.0012603851, "MEAN_MOTION_DOT": 0.00206057, "MEAN_MOTION_DDOT": 0}, "tle": {"line1": "1 65729U 98067XH  25358.92875737  .00206057  00000+0  12604-2 0  9994", "line2": "2 65729  51.6251  73.1569 0008056 349.7528  10.3306 15.76149650 15080"}}, "geometry": {"type": "Point", "coordinates": [143.76456709885377, 50.581295714658495]}}, {"type": "Feature", "properties": {"norad_id": 65731, "name": "1998-067XK", "group": "stations", "lat": 36.45104201788116, "lon": -144.48344723091046, "alt_km": 362.3393914841454, "timestamp": "2025-12-25T16:53:13.407712+00:00", "meta": {"OBJECT_NAME": "1998-067XK", "OBJECT_ID": "1998-067XK", "EPOCH": "2025-12-24T11:16:20.028000", "MEAN_MOTION": 15.67978094, "ECCENTRICITY": 0.00049802, "INCLINATION": 51.6288, "RA_OF_ASC_NODE": 77.6233, "ARG_OF_PERICENTER": 319.0572, "MEAN_ANOMALY": 41.005, "EPHEMERIS_TYPE": 0, "CLASSIFICATION_TYPE": "U", "NORAD_CAT_ID": 65731, "ELEMENT_SET_NO": 999, "REV_AT_EPOCH": 1498, "BSTAR": 0.00093626937, "MEAN_MOTION_DOT": 0.00106638, "MEAN_MOTION_DDOT": 0}, "tle": {"line1": "1 65731U 98067XK  25358.46967625  .00106638  00000+0  93627-3 0  9993", "line2": "2 65731  51.6288  77.6233 0004980 319.0572  41.0050 15.67978094 14988"}}, "geometry": {"type": "Point", "coordinates": [-144.48344723091046, 36.45104201788116]}}, {"type": "Feature", "properties": {"norad_id": 65732, "name": "RSP-03", "group": "stations", "lat": -49.769493711080514, "lon": -40.18427007733953, "alt_km": 356.7207230904578, "timestamp": "2025-12-25T16:53:13.407723+00:00", "meta": {"OBJECT_NAME": "RSP-03", "OBJECT_ID": "1998-067XL", "EPOCH": "2025-12-25T06:38:37.432032", "MEAN_MOTION": 15.71873826, "ECCENTRICITY": 0.00060461, "INCLINATION": 51.626, "RA_OF_ASC_NODE": 72.4976, "ARG_OF_PERICENTER": 331.0296, "MEAN_ANOMALY": 29.0366, "EPHEMERIS_TYPE": 0, "CLASSIFICATION_TYPE": "U", "NORAD_CAT_ID": 65732, "ELEMENT_SET_NO": 999, "REV_AT_EPOCH": 1513, "BSTAR": 0.0010910555, "MEAN_MOTION_DOT": 0.00147046, "MEAN_MOTION_DDOT": 0}, "tle": {"line1": "1 65732U 98067XL  25359.27682213  .00147046  00000+0  10911-2 0  9993", "line2": "2 65732  51.6260  72.4976 0006046 331.0296  29.0366 15.71873826 15134"}}, "geometry": {"type": "Point", "coordinates": [-40.18427007733953, -49.769493711080514]}}, {"type": "Feature", "properties": {"norad_id": 65733, "name": "GHS-01", "group": "stations", "lat": 14.154257191132865, "lon": -123.27182083233252, "alt_km": 332.8264003989425, "timestamp": "2025-12-25T16:53:13.407734+00:00", "meta": {"OBJECT_NAME": "GHS-01", "OBJECT_ID": "1998-067XM", "EPOCH": "2025-12-25T05:35:06.591552", "MEAN_MOTION": 15.80593355, "ECCENTRICITY": 0.0009577, "INCLINATION": 51.6284, "RA_OF_ASC_NODE": 70.699, "ARG_OF_PERICENTER": 357.1699, "MEAN_ANOMALY": 2.9247, "EPHEMERIS_TYPE": 0, "CLASSIFICATION_TYPE": "U", "NORAD_CAT_ID": 65733, "ELEMENT_SET_NO": 999, "REV_AT_EPOCH": 1515, "BSTAR": 0.0014478378, "MEAN_MOTION_DOT": 0.00292396, "MEAN_MOTION_DDOT": 0}, "tle": {"line1": "1 65733U 98067XM  25359.23271518  .00292396  00000+0  14478-2 0  9993", "line2": "2 65733  51.6284  70.6990 0009577 357.1699   2.9247 15.80593355 15151"}}, "geometry": {"type": "Point", "coordinates": [-123.27182083233252, 14.154257191132865]}}, {"type": "Feature", "properties": {"norad_id": 65941, "name": "YOTSUBA-KULOVER", "group": "stations", "lat": -42.475696468106904, "lon": 28.23250604678577, "alt_km": 387.66171439381014, "timestamp": "2025-12-25T16:53:13.407747+00:00", "meta": {"OBJECT_NAME": "YOTSUBA-KULOVER", "OBJECT_ID": "1998-067XN", "EPOCH": "2025-12-25T06:23:13.150752", "MEAN_MOTION": 15.61130686, "ECCENTRICITY": 0.00025006, "INCLINATION": 51.6289, "RA_OF_ASC_NODE": 76.9426, "ARG_OF_PERICENTER": 358.5188, "MEAN_ANOMALY": 1.5798, "EPHEMERIS_TYPE": 0, "CLASSIFICATION_TYPE": "U", "NORAD_CAT_ID": 65941, "ELEMENT_SET_NO": 999, "REV_AT_EPOCH": 1181, "BSTAR": 0.0008153338, "MEAN_MOTION_DOT": 0.00070283, "MEAN_MOTION_DDOT": 0}, "tle": {"line1": "1 65941U 98067XN  25359.26612443  .00070283  00000+0  81533-3 0  9999", "line2": "2 65941  51.6289  76.9426 0002500 358.5188   1.5798 15.61130686 11815"}}, "geometry": {"type": "Point", "coordinates": [28.23250604678577, -42.475696468106904]}}, {"type": "Feature", "properties": {"norad_id": 65942, "name": "BOTAN", "group": "stations", "lat": 51.5687543415924, "lon": 166.68366788944297, "alt_km": 365.223955210412, "timestamp": "2025-12-25T16:53:13.407758+00:00", "meta": {"OBJECT_NAME": "BOTAN", "OBJECT_ID": "1998-067XP", "EPOCH": "2025-12-24T22:06:45.138528", "MEAN_MOTION": 15.65433076, "ECCENTRICITY": 0.00033628, "INCLINATION": 51.6276, "RA_OF_ASC_NODE": 77.6384, "ARG_OF_PERICENTER": 336.9031, "MEAN_ANOMALY": 23.1813, "EPHEMERIS_TYPE": 0, "CLASSIFICATION_TYPE": "U", "NORAD_CAT_ID": 65942, "ELEMENT_SET_NO": 999, "REV_AT_EPOCH": 1177, "BSTAR": 0.0011375872, "MEAN_MOTION_DOT": 0.00117098, "MEAN_MOTION_DDOT": 0}, "tle": {"line1": "1 65942U 98067XP  25358.92135577  .00117098  00000+0  11376-2 0  9993", "line2": "2 65942  51.6276  77.6384 0003362 336.9031  23.1813 15.65433076 11773"}}, "geometry": {"type": "Point", "coordinates": [166.68366788944297, 51.5687543415924]}}, {"type": "Feature", "properties": {"norad_id": 65943, "name": "E-KAGAKU-1", "group": "stations", "lat": -42.744078981900586, "lon": 27.670735253166526, "alt_km": 387.62081669183226, "timestamp": "2025-12-25T16:53:13.407771+00:00", "meta": {"OBJECT_NAME": "E-KAGAKU-1", "OBJECT_ID": "1998-067XQ", "EPOCH": "2025-12-24T11:57:09.904320", "MEAN_MOTION": 15.61022855, "ECCENTRICITY": 0.00014072, "INCLINATION": 51.6316, "RA_OF_ASC_NODE": 80.8196, "ARG_OF_PERICENTER": 317.6976, "MEAN_ANOMALY": 42.3909, "EPHEMERIS_TYPE": 0, "CLASSIFICATION_TYPE": "U", "NORAD_CAT_ID": 65943, "ELEMENT_SET_NO": 999, "REV_AT_EPOCH": 1169, "BSTAR": 0.00086882896, "MEAN_MOTION_DOT": 0.00074652, "MEAN_MOTION_DDOT": 0}, "tle": {"line1": "1 65943U 98067XQ  25358.49803130  .00074652  00000+0  86883-3 0  9997", "line2": "2 65943  51.6316  80.8196 0001407 317.6976  42.3909 15.61022855 11693"}}, "geometry": {"type": "Point", "coordinates": [27.670735253166526, -42.744078981900586]}}]}